GSAT0101 (PRN E11)      
1 37846U 11060A   20344.92762595 -.00000072  00000-0  00000-0 0  9994
2 37846  56.7343  36.4687 0002489 304.0188  56.0156  1.70475107 56768
GSAT0102 (PRN E12)      
1 37847U 11060B   20344.23948833 -.00000071  00000-0  00000-0 0  9999
2 37847  56.7342  36.4871 0004454 292.5593  51.3075  1.70475264 56759
GSAT0103 (PRN E19)      
1 38857U 12055A   20344.38279049  .00000102  00000-0  00000-0 0  9992
2 38857  55.0082 156.9666 0001156 230.4429 129.5703  1.70473648 50797
GSAT0104 (PRN E20)      
1 38858U 12055B   20344.31719517  .00000103  00000-0  00000-0 0  9996
2 38858  55.0085 156.9679 0000454 135.9634 224.0637  1.70473594 50799
GSAT0201 (PRN E18)      
1 40128U 14050A   20344.57697045 -.00000078  00000-0  00000-0 0  9997
2 40128  50.5366 354.3894 1654414 105.1064 273.7878  1.85519323 40924
GSAT0202 (PRN E14)      
1 40129U 14050B   20344.30105614 -.00000076  00000-0  00000-0 0  9993
2 40129  50.5708 353.4432 1652012 105.9108 272.9146  1.85520019 43085
GSAT0203 (PRN E26)      
1 40544U 15017A   20344.70875609 -.00000072  00000-0  00000-0 0  9996
2 40544  56.5278  36.5840 0005273 247.5068 112.4949  1.70474965 34849
GSAT0204 (PRN E22)      
1 40545U 15017B   20344.48973393 -.00000072  00000-0  00000-0 0  9991
2 40545  56.5340  36.6068 0003657 221.0957 138.9342  1.70475008 35504
GSAT0205 (PRN E24)      
1 40889U 15045A   20344.14513085 -.00000026  00000-0  00000-0 0  9993
2 40889  56.0192 277.2901 0005165 356.9475   3.0565  1.70474455 32649
GSAT0206 (PRN E30)      
1 40890U 15045B   20344.95123907 -.00000031  00000-0  00000-0 0  9990
2 40890  56.0177 277.2643 0003759 342.6132  17.3781  1.70474514 32684
GSAT0209 (PRN E09)      
1 41174U 15079A   20344.53836100  .00000102  00000-0  00000-0 0  9991
2 41174  55.0231 156.6616 0002637 343.7369  16.2774  1.70473272 30585
GSAT0208 (PRN E08)      
1 41175U 15079B   20344.17150379  .00000102  00000-0  00000-0 0  9999
2 41175  55.0208 156.6709 0002038 357.7610   2.2610  1.70473225 30999
GSAT0211 (PRN E02)      
1 41549U 16030A   20344.87927869 -.00000030  00000-0  00000-0 0  9996
2 41549  56.1600 277.1409 0004900 320.6719  39.2970  1.70474220 28315
GSAT0210 (PRN E01)      
1 41550U 16030B   20343.99898842 -.00000025  00000-0  00000-0 0  9992
2 41550  56.1609 277.1666 0004109 297.0349  62.9311  1.70474199 28292
GSAT0207 (PRN E07)      
1 41859U 16069A   20344.24454737  .00000102  00000-0  00000-0 0  9991
2 41859  54.6816 156.9887 0002011 322.4032  37.6062  1.70473194 25190
GSAT0212 (PRN E03)      
1 41860U 16069B   20345.27116338  .00000100  00000-0  00000+0 0  9996
2 41860  54.6791 156.9588 0002274  13.9544 346.0739  1.70473231 25306
GSAT0213 (PRN E04)      
1 41861U 16069C   20344.46370591  .00000102  00000-0  00000-0 0  9993
2 41861  54.6816 156.9853 0001078 263.2691  96.7420  1.70473277 25298
GSAT0214 (PRN E05)      
1 41862U 16069D   20345.19736458  .00000100  00000-0  00000+0 0  9990
2 41862  54.6792 156.9602 0000289 300.9175  59.1019  1.70473284 25298
GSAT0215 (PRN E21)      
1 43055U 17079A   20343.92765888 -.00000025  00000-0  00000-0 0  9994
2 43055  56.1364 277.0079 0003397 295.6120  64.3613  1.70473424 18614
GSAT0216 (PRN E25)      
1 43056U 17079B   20344.80687749 -.00000030  00000-0  00000-0 0  9998
2 43056  56.1359 276.9834 0005152 289.2276  70.7217  1.70473521 18640
GSAT0217 (PRN E27)      
1 43057U 17079C   20345.02696442 -.00000031  00000-0  00000+0 0  9994
2 43057  56.1340 276.9778 0004931 301.0045  58.9514  1.70473505 18638
GSAT0218 (PRN E31)      
1 43058U 17079D   20344.07379681 -.00000026  00000-0  00000-0 0  9997
2 43058  56.1348 277.0014 0005514 284.5235  75.4232  1.70473504 18647
GSAT0221 (PRN E15)      
1 43564U 18060A   20343.97280365 -.00000070  00000-0  00000-0 0  9997
2 43564  56.9135  36.2772 0005656 261.8458  98.1480  1.70476083 14793
GSAT0222 (PRN E33)      
1 43565U 18060B   20343.01948732 -.00000067  00000-0  00000-0 0  9998
2 43565  56.9150  36.3030 0005213 267.6346  92.3644  1.70476085 14822
GSAT0219 (PRN E36)      
1 43566U 18060C   20343.82646295 -.00000069  00000-0  00000-0 0  9999
2 43566  56.9164  36.2825 0005026 262.9323  97.0686  1.70475974 14817
GSAT0220 (PRN E13)      
1 43567U 18060D   20345.21951657 -.00000073  00000-0  00000-0 0  9991
2 43567  56.9169  36.2453 0005169 264.1364  95.8633  1.70475711 14825
